$$SOE
2460721.500000000, A.D. 2025-Feb-15 00:00:00.0000, -3.935238056724415E+08, -7.121136702361370E+06, -1.966649474505340E+07,
2460728.500000000, A.D. 2025-Feb-22 00:00:00.0000, -3.934936960304355E+08, -1.745669908539271E+07, -2.000639439518955E+07,
2460735.500000000, A.D. 2025-Mar-01 00:00:00.0000, -3.931521813915950E+08, -2.777849313991953E+07, -2.033046140265175E+07,
2460742.500000000, A.D. 2025-Mar-08 00:00:00.0000, -3.925001622648817E+08, -3.807839520556608E+07, -2.063847231481533E+07,
2460749.500000000, A.D. 2025-Mar-15 00:00:00.0000, -3.915386824203014E+08, -4.834832079303759E+07, -2.093021215343055E+07,
2460756.500000000, A.D. 2025-Mar-22 00:00:00.0000, -3.902689299733322E+08, -5.858022267992948E+07, -2.120547406702656E+07,
2460763.500000000, A.D. 2025-Mar-29 00:00:00.0000, -3.886922373847796E+08, -6.876609126387827E+07, -2.146405930704962E+07,
2460770.500000000, A.D. 2025-Apr-05 00:00:00.0000, -3.868100800406447E+08, -7.889795404126564E+07, -2.170577730008235E+07,
2460777.500000000, A.D. 2025-Apr-12 00:00:00.0000, -3.846240753246634E+08, -8.896787411923173E+07, -2.193044562979833E+07,
2460784.500000000, A.D. 2025-Apr-19 00:00:00.0000, -3.821359823635340E+08, -9.896794865949571E+07, -2.213788998371843E+07,
2460791.500000000, A.D. 2025-Apr-26 00:00:00.0000, -3.793477021740257E+08, -1.088903074738068E+08, -2.232794410774922E+07,
2460798.500000000, A.D. 2025-May-03 00:00:00.0000, -3.762612781024857E+08, -1.187271117648587E+08, -2.250044977905362E+07,
2460805.500000000, A.D. 2025-May-10 00:00:00.0000, -3.728788965315677E+08, -1.284705530137973E+08, -2.265525680045190E+07,
2460812.500000000, A.D. 2025-May-17 00:00:00.0000, -3.692028878185439E+08, -1.381128520637551E+08, -2.279222302382476E+07,
2460819.500000000, A.D. 2025-May-24 00:00:00.0000, -3.652357272902692E+08, -1.476462584623283E+08, -2.291121442325855E+07,
2460826.500000000, A.D. 2025-May-31 00:00:00.0000, -3.609800358745945E+08, -1.570630497611373E+08, -2.301210523093072E+07,
2460833.500000000, A.D. 2025-Jun-07 00:00:00.0000, -3.564385807656634E+08, -1.663555295776107E+08, -2.309477800046287E+07,
2460840.500000000, A.D. 2025-Jun-14 00:00:00.0000, -3.516142784837222E+08, -1.755160250973900E+08, -2.315912343544313E+07,
2460847.500000000, A.D. 2025-Jun-21 00:00:00.0000, -3.465101991110392E+08, -1.845368873024436E+08, -2.320504036259372E+07,
2460854.500000000, A.D. 2025-Jun-28 00:00:00.0000, -3.411295685762210E+08, -1.934104921735174E+08, -2.323243599282341E+07,
2460861.500000000, A.D. 2025-Jul-05 00:00:00.0000, -3.354757705020252E+08, -2.021292407218907E+08, -2.324122615477678E+07,
2460868.500000000, A.D. 2025-Jul-12 00:00:00.0000, -3.295523488035247E+08, -2.106855586680576E+08, -2.323133545727611E+07,
2460875.500000000, A.D. 2025-Jul-19 00:00:00.0000, -3.233630108432738E+08, -2.190718963574389E+08, -2.320269744530958E+07,
2460882.500000000, A.D. 2025-Jul-26 00:00:00.0000, -3.169116309317155E+08, -2.272807289863620E+08, -2.315525477406411E+07,
2460889.500000000, A.D. 2025-Aug-02 00:00:00.0000, -3.102022541064026E+08, -2.353045571332443E+08, -2.308895940575744E+07,
2460896.500000000, A.D. 2025-Aug-09 00:00:00.0000, -3.032391001647637E+08, -2.431359076260862E+08, -2.300377283289638E+07,
2460903.500000000, A.D. 2025-Aug-16 00:00:00.0000, -2.960265678705691E+08, -2.507673348266385E+08, -2.289966634036478E+07,
2460910.500000000, A.D. 2025-Aug-23 00:00:00.0000, -2.885692390378750E+08, -2.581914223329134E+08, -2.277662133198784E+07,
2460917.500000000, A.D. 2025-Aug-30 00:00:00.0000, -2.808718821591914E+08, -2.654007844049468E+08, -2.263462969349265E+07,
2460924.500000000, A.D. 2025-Sep-06 00:00:00.0000, -2.729394569902120E+08, -2.723880661330466E+08, -2.247369398006615E+07,
2460931.500000000, A.D. 2025-Sep-13 00:00:00.0000, -2.647771217545349E+08, -2.791459448527415E+08, -2.229382747834696E+07,
2460938.500000000, A.D. 2025-Sep-20 00:00:00.0000, -2.563902396885616E+08, -2.856671344754038E+08, -2.209505457796618E+07,
2460945.500000000, A.D. 2025-Sep-27 00:00:00.0000, -2.477843838620265E+08, -2.919443896481268E+08, -2.187741129580949E+07,
2460952.500000000, A.D. 2025-Oct-04 00:00:00.0000, -2.389653422824601E+08, -2.979705092276165E+08, -2.164094572393894E+07,
2460959.500000000, A.D. 2025-Oct-11 00:00:00.0000, -2.299391236456887E+08, -3.037383400353891E+08, -2.138571844387183E+07,
2460966.500000000, A.D. 2025-Oct-18 00:00:00.0000, -2.207119634345331E+08, -3.092407811950088E+08, -2.111180295582268E+07,
2460973.500000000, A.D. 2025-Oct-25 00:00:00.0000, -2.112903302106231E+08, -3.144707890696042E+08, -2.081928613532899E+07,
2460980.500000000, A.D. 2025-Nov-01 00:00:00.0000, -2.016809320437148E+08, -3.194213828154204E+08, -2.050826872023445E+07,
2460987.500000000, A.D. 2025-Nov-08 00:00:00.0000, -1.918907230262271E+08, -3.240856506147774E+08, -2.017886583422528E+07,
2460994.500000000, A.D. 2025-Nov-15 00:00:00.0000, -1.819269097047499E+08, -3.284567566796183E+08, -1.983120756557773E+07,
2461001.500000000, A.D. 2025-Nov-22 00:00:00.0000, -1.717969570026887E+08, -3.325279488392622E+08, -1.946543962027618E+07,
2461008.500000000, A.D. 2025-Nov-29 00:00:00.0000, -1.615085937615575E+08, -3.362925656114697E+08, -1.908172394268978E+07,
2461015.500000000, A.D. 2025-Dec-06 00:00:00.0000, -1.510698201492140E+08, -3.397440429256664E+08, -1.868023910563612E+07,
2461022.500000000, A.D. 2025-Dec-13 00:00:00.0000, -1.404889164676119E+08, -3.428759239005766E+08, -1.826118078427833E+07,
2461029.500000000, A.D. 2025-Dec-20 00:00:00.0000, -1.297744498285680E+08, -3.456818706853693E+08, -1.782476254949117E+07,
2461036.500000000, A.D. 2025-Dec-27 00:00:00.0000, -1.189352797267348E+08, -3.481556758045256E+08, -1.737121666888967E+07,
2461043.500000000, A.D. 2026-Jan-03 00:00:00.0000, -1.079805639169039E+08, -3.502912736547501E+08, -1.690079483061481E+07,
2461050.500000000, A.D. 2026-Jan-10 00:00:00.0000, -9.691976442932525E+07, -3.520827528693837E+08, -1.641376885452488E+07,
2461057.500000000, A.D. 2026-Jan-17 00:00:00.0000, -8.576265343184751E+07, -3.535243696799724E+08, -1.591043141872239E+07,
2461064.500000000, A.D. 2026-Jan-24 00:00:00.0000, -7.451931879896404E+07, -3.546105622884699E+08, -1.539109680528803E+07,
2461071.500000000, A.D. 2026-Jan-31 00:00:00.0000, -6.320016929689028E+07, -3.553359662903365E+08, -1.485610166574416E+07,
2461078.500000000, A.D. 2026-Feb-07 00:00:00.0000, -5.181593924915122E+07, -3.556954312348571E+08, -1.430580581348675E+07,
2461085.500000000, A.D. 2026-Feb-14 00:00:00.0000, -4.037769234811538E+07, -3.556840383624756E+08, -1.374059306388217E+07,
2461092.500000000, A.D. 2026-Feb-21 00:00:00.0000, -2.889682413545353E+07, -3.552971189621562E+08, -1.316087210619573E+07,
2461099.500000000, A.D. 2026-Feb-28 00:00:00.0000, -1.738506413920677E+07, -3.545302722101648E+08, -1.256707720895559E+07,
2461106.500000000, A.D. 2026-Mar-07 00:00:00.0000, -5.854479620660818E+06, -3.533793844483362E+08, -1.195966872430150E+07,
2461113.500000000, A.D. 2026-Mar-14 00:00:00.0000, 5.682521958824475E+06, -3.518406522374091E+08, -1.133913383125333E+07,
2461120.500000000, A.D. 2026-Mar-21 00:00:00.0000, 1.721319365485988E+07, -3.499106062861125E+08, -1.070598743868396E+07,
2461127.500000000, A.D. 2026-Mar-28 00:00:00.0000, 2.872445105837313E+07, -3.475861352171806E+08, -1.006077297283237E+07,
2461134.500000000, A.D. 2026-Apr-04 00:00:00.0000, 4.020287514521222E+07, -3.448645101141209E+08, -9.404063065286234E+06,
2461141.500000000, A.D. 2026-Apr-11 00:00:00.0000, 5.163471637119946E+07, -3.417434101747135E+08, -8.736460187592894E+06,
2461148.500000000, A.D. 2026-Apr-18 00:00:00.0000, 6.300590031793841E+07, -3.382209494300772E+08, -8.058597238543049E+06,
2461155.500000000, A.D. 2026-Apr-25 00:00:00.0000, 7.430203508690363E+07, -3.342957044506640E+08, -7.371138077425614E+06,
2461162.500000000, A.D. 2026-May-02 00:00:00.0000, 8.550842063020015E+07, -3.299667429884874E+08, -6.674777998273700E+06,
2461169.500000000, A.D. 2026-May-09 00:00:00.0000, 9.661006030447376E+07, -3.252336535261002E+08, -5.970244150939167E+06,
2461176.500000000, A.D. 2026-May-16 00:00:00.0000, 1.075916751882532E+08, -3.200965754811766E+08, -5.258295920363247E+06,
2461183.500000000, A.D. 2026-May-23 00:00:00.0000, 1.184377213747913E+08, -3.145562289104031E+08, -4.539725172461808E+06,
2461190.500000000, A.D. 2026-May-30 00:00:00.0000, 1.291324083185548E+08, -3.086139432343538E+08, -3.815356136668250E+06,
2461197.500000000, A.D. 2026-Jun-06 00:00:00.0000, 1.396597180700439E+08, -3.022716880710015E+08, -3.086045150221869E+06,
2461204.500000000, A.D. 2026-Jun-13 00:00:00.0000, 1.500034292116400E+08, -2.955321057690906E+08, -2.352680570632562E+06,
2461211.500000000, A.D. 2026-Jun-20 00:00:00.0000, 1.601471451300984E+08, -2.883985424839665E+08, -1.616182557194307E+06,
2461218.500000000, A.D. 2026-Jun-27 00:00:00.0000, 1.700743250483352E+08, -2.808750778790933E+08, -8.775025792457163E+05,
2461225.500000000, A.D. 2026-Jul-04 00:00:00.0000, 1.797683179186809E+08, -2.729665539446574E+08, -1.376227002510875E+05,
2461232.500000000, A.D. 2026-Jul-11 00:00:00.0000, 1.892123995113815E+08, -2.646786027562985E+08, 6.024453422694355E+05,
2461239.500000000, A.D. 2026-Jul-18 00:00:00.0000, 1.983898128432209E+08, -2.560176728155209E+08, 1.341661268210277E+06,
2461246.500000000, A.D. 2026-Jul-25 00:00:00.0000, 2.072838119889351E+08, -2.469910536129684E+08, 2.078957608557463E+06,
2461253.500000000, A.D. 2026-Aug-01 00:00:00.0000, 2.158777093029574E+08, -2.376068980826810E+08, 2.813241284287393E+06,
2461260.500000000, A.D. 2026-Aug-08 00:00:00.0000, 2.241549262062715E+08, -2.278742425817262E+08, 3.543395397621214E+06,
2461267.500000000, A.D. 2026-Aug-15 00:00:00.0000, 2.320990478528661E+08, -2.178030235307230E+08, 4.268281243046448E+06,
2461274.500000000, A.D. 2026-Aug-22 00:00:00.0000, 2.396938807671343E+08, -2.074040890750861E+08, 4.986740714822292E+06,
2461281.500000000, A.D. 2026-Aug-29 00:00:00.0000, 2.469235109611550E+08, -1.966892067179635E+08, 5.697599212871611E+06,
$$EOE